KUIPER-00220            
1 67781U 26030T   26060.44213517  .00022337  00000+0  67017-3 0  9991
2 67781  51.8796 259.0364 0008051  34.1795 325.9708 15.34350953  3824
KUIPER-00222            
1 67782U 26030U   26060.52417597  .00030671  00000+0  96862-3 0  9995
2 67782  51.8805 258.8298 0017311  39.2881 320.9356 15.32430898  3830
KUIPER-00223            
1 67783U 26030V   26060.51275975  .00020906  00000+0  63724-3 0  9998
2 67783  51.8814 258.7620 0012171  37.2199 322.9628 15.33854793  3837
KUIPER-00225            
1 67784U 26030W   26060.43003473  .00024617  00000+0  71160-3 0  9998
2 67784  51.8796 258.9593 0003615  20.4405 339.6725 15.35488161  3821
KUIPER-00226            
1 67785U 26030X   26060.46762955  .00038061  00000+0  12338-2 0  9998
2 67785  51.8820 259.1986 0019976  47.7575 312.5100 15.31439268  3823
KUIPER-00259            
1 67786U 26030Y   26060.43889375  .00033937  00000+0  10004-2 0  9997
2 67786  51.8799 259.0161 0007827  26.5049 333.6336 15.34680052  3823
KUIPER-00260            
1 67787U 26030Z   26060.42381759  .00026536  00000+0  75272-3 0  9996
2 67787  51.8788 258.9181 0000870  84.8936 275.2150 15.36040962  3732
KUIPER-00262            
1 67788U 26030AA  26060.42110862  .00042302  00000+0  11791-2 0  9996
2 67788  51.8802 258.9032 0000923 153.1606 206.9428 15.36354352  3828
KUIPER-00266            
1 67789U 26030AB  26060.47123630  .00013753  00000+0  46023-3 0  9994
2 67789  51.8819 259.2197 0022348  48.2179 312.0710 15.31024337  3822
KUIPER-00268            
1 67790U 26030AC  26060.42778464  .00020446  00000+0  59108-3 0  9997
2 67790  51.8833 258.9501 0001879  33.0066 327.1037 15.35603610  3828
KUIPER-00270            
1 67791U 26030AD  26060.44321278  .00021813  00000+0  65646-3 0  9990
2 67791  51.8794 259.0431 0009902  33.5018 326.6592 15.34253650  3820
KUIPER-00274            
1 67792U 26030AE  26060.52731076  .00032911  00000+0  10624-2 0  9997
2 67792  51.8829 258.8563 0017370  44.9304 315.3082 15.31690738  3834
